OBJECT_NAME,OBJECT_ID,EPOCH,MEAN_MOTION,ECCENTRICITY,INCLINATION,RA_OF_ASC_NODE,ARG_OF_PERICENTER,MEAN_ANOMALY,EPHEMERIS_TYPE,CLASSIFICATION_TYPE,NORAD_CAT_ID,ELEMENT_SET_NO,REV_AT_EPOCH,BSTAR,MEAN_MOTION_DOT,MEAN_MOTION_DDOT
SL-14 R/B,1990-018B,2026-06-30T22:01:59.266848,14.82225590,.0017679,82.5221,117.2745,80.2909,280.0301,0,U,20511,999,93935,.51429E-4,.435E-5,0
HST,1990-037B,2026-07-01T03:49:52.578048,15.30913500,.0001499,28.4735,345.0705,316.6330,43.4148,0,U,20580,999,79071,.25961E-3,.8219E-4,0
SL-16 R/B,1990-046B,2026-07-01T02:04:25.349664,14.15024816,.0012563,70.9994,59.7582,139.2668,220.9397,0,U,20625,999,86443,-.99856E-4,-.241E-5,0
COSMOS 2084,1990-055A,2026-07-01T01:41:19.135968,15.06174530,.000652,62.7914,308.7031,301.6991,58.3474,0,U,20663,999,95339,.17453E-3,.2368E-4,0
SL-6 R/B(2),1990-055D,2026-07-01T01:52:14.143008,15.04045021,.0042903,62.7806,228.1065,7.0320,353.1372,0,U,20666,999,95524,.1253E-3,.1567E-4,0
SL-8 R/B,1990-078B,2026-07-01T00:06:03.338784,14.93016764,.0346828,82.9025,149.1545,351.7802,7.7817,0,U,20775,999,82618,.9259E-3,.32728E-3,0
SL-8 R/B,1991-006B,2026-07-01T03:57:58.768128,13.77507310,.0023869,82.9422,85.6355,77.6974,35.8613,0,U,21088,999,77969,.77558E-4,.93E-6,0
OKEAN-3,1991-039A,2026-07-01T03:56:13.838784,15.05386683,.0012458,82.5151,226.8283,306.3375,53.6701,0,U,21397,999,88210,.15415E-3,.224E-4,0
COSMOS 2151,1991-042A,2026-07-01T03:08:31.377408,15.00479016,.0013207,82.4969,334.2232,41.4776,318.7448,0,U,21422,999,88020,.12598E-3,.1615E-4,0
SL-14 R/B,1991-042B,2026-07-01T04:44:29.718816,14.81911144,.0015828,82.4935,113.7578,224.4399,135.5546,0,U,21423,999,86988,.46757E-4,.394E-5,0
ERS-1,1991-050A,2026-07-01T01:35:28.466880,14.39526611,.0031085,98.7794,203.1033,224.3277,135.5421,0,U,21574,999,83204,.14699E-3,.414E-5,0
ARIANE 40 R/B,1991-050F,2026-07-01T03:00:47.290176,14.42965228,.0004465,98.1868,229.9991,91.5170,268.6533,0,U,21610,999,83535,.10834E-3,.321E-5,0
INTERCOSMOS 25,1991-086A,2026-07-01T03:26:25.630080,12.12218504,.1484011,82.6032,241.3647,232.2562,113.4783,0,U,21819,999,51043,.13808E-3,.698E-5,0
SL-8 R/B,1992-008B,2026-07-01T02:06:18.493056,13.75980590,.0034785,82.9260,183.4519,175.4324,247.1473,0,U,21876,999,72501,.12583E-3,.138E-5,0
SL-8 R/B,1992-020B,2026-07-01T02:27:23.273280,13.75550039,.0028763,82.9299,69.5214,344.0010,124.7292,0,U,21938,999,71672,.46184E-4,.6E-6,0
USA 81,1992-023A,2026-07-01T02:33:10.444032,14.32401843,.0002524,85.0065,65.9736,72.7172,287.4296,0,U,21949,999,11102,.61391E-4,.186E-5,0
COSMOS 2219,1992-076A,2026-07-01T03:01:15.547296,14.14108434,.0017356,71.0606,140.9333,20.4391,339.7422,0,U,22219,999,73441,.10884E-3,.16E-5,0
SL-16 R/B,1992-076B,2026-06-30T12:23:09.229056,14.16874884,.00150628,71.0014,310.7028,281.0823,149.1127,0,U,22220,999,73781,-.8488544E-4,-.218E-5,0
COSMOS 2221,1992-080A,2026-07-01T01:06:45.453024,14.96570261,.0014596,82.5032,170.4858,164.7441,195.4224,0,U,22236,999,79774,.15048E-3,.1741E-4,0
SL-16 R/B,1992-093B,2026-07-01T02:14:53.270304,14.15463619,.0003193,71.0213,126.1976,162.4327,197.6907,0,U,22285,999,72920,.16814E-3,.281E-5,0
COSMOS 2228,1992-094A,2026-07-01T02:51:03.437856,14.97635900,.001603,82.5185,128.6985,281.5262,78.4161,0,U,22286,999,79303,.17081E-3,.2028E-4,0
SL-16 R/B,1993-016B,2026-06-30T10:32:16.937088,14.15314729,.00093441,71.0088,338.3730,164.1549,195.9868,0,U,22566,999,71812,-.10329568E-3,-.249E-5,0
COSMOS 2242,1993-024A,2026-07-01T05:14:21.756768,14.96947715,.001443,82.5186,158.1185,285.1262,74.8364,0,U,22626,999,79737,.17362E-3,.2024E-4,0
SL-16 R/B,1993-059B,2026-07-01T02:41:09.753216,14.17248900,.0015886,70.9898,131.9391,31.0121,329.1937,0,U,22803,999,69560,.14552E-3,.246E-5,0
ARIANE 40 R/B,1993-061H,2026-07-01T02:25:41.769696,14.32913684,.0009693,98.4814,248.6689,312.5885,47.4480,0,U,22830,999,71034,.10255E-3,.237E-5,0
COSMOS 2278,1994-023A,2026-07-01T00:54:28.971648,14.14397113,.0010322,71.0549,297.9464,226.6754,133.3509,0,U,23087,999,66083,-.88356E-4,-.216E-5,0
SL-16 R/B,1994-023B,2026-07-01T02:29:55.346784,14.15026744,.0001846,70.9981,192.7046,172.4888,187.6263,0,U,23088,999,66213,-.83057E-4,-.209E-5,0
SL-16 R/B,1994-074B,2026-07-01T01:56:05.975808,14.79514280,.0005935,97.6986,208.2224,199.5885,228.1099,0,U,23343,999,70401,.71434E-4,.485E-5,0
SL-16 R/B,1994-077B,2026-07-01T02:41:28.952160,14.15578108,.0003761,70.9833,113.8675,315.0841,44.9977,0,U,23405,999,63228,-.20835E-5,-.52E-6,0
ARIANE 40+ R/B,1995-021B,2026-07-01T03:50:23.707104,14.39841210,.0007336,98.4408,252.0329,153.4425,260.7995,0,U,23561,999,63557,.11262E-3,.31E-5,0
SL-16 R/B,1995-058B,2026-07-01T01:17:37.686624,14.15511259,.0014582,71.0229,302.2445,301.3500,58.6195,0,U,23705,999,58389,-.80891E-4,-.206E-5,0
