{"format":"tle-catalog-v1","generatedAt":"2026-07-01T14:19:31.438Z","count":19018,"entries":[{"name":"ARIANE 40 R/B","line1":"1 21610U 91050F   26182.12554734  .00000321  00000+0  10834-3 0  9999","line2":"2 21610  98.1868 229.9991 0004465  91.5170 268.6533 14.42965228835355"},{"name":"ARIANE 40 R/B","line1":"1 22830U 93061H   26182.10117789  .00000237  00000+0  10255-3 0  9994","line2":"2 22830  98.4814 248.6689 0009693 312.5885  47.4480 14.32913684710346"},{"name":"ARIANE 40+ R/B","line1":"1 23561U 95021B   26182.15999661  .00000310  00000+0  11262-3 0  9997","line2":"2 23561  98.4408 252.0329 0007336 153.4425 260.7995 14.39841210635575"},{"name":"COSMOS 2084","line1":"1 20663U 90055A   26182.07036037  .00002368  00000+0  17453-3 0  9992","line2":"2 20663  62.7914 308.7031 0006520 301.6991  58.3474 15.06174530953394"},{"name":"COSMOS 2151","line1":"1 21422U 91042A   26182.13091872  .00001615  00000+0  12598-3 0  9997","line2":"2 21422  82.4969 334.2232 0013207  41.4776 318.7448 15.00479016880208"},{"name":"COSMOS 2219","line1":"1 22219U 92076A   26182.12587439  .00000160  00000+0  10884-3 0  9998","line2":"2 22219  71.0606 140.9333 0017356  20.4391 339.7422 14.14108434734411"},{"name":"COSMOS 2221","line1":"1 22236U 92080A   26182.04635941  .00001741  00000+0  15048-3 0  9998","line2":"2 22236  82.5032 170.4858 0014596 164.7441 195.4224 14.96570261797744"},{"name":"COSMOS 2228","line1":"1 22286U 92094A   26182.11878979  .00002028  00000+0  17081-3 0  9994","line2":"2 22286  82.5185 128.6985 0016030 281.5262  78.4161 14.97635900793039"},{"name":"COSMOS 2242","line1":"1 22626U 93024A   26182.21830737  .00002024  00000+0  17362-3 0  9995","line2":"2 22626  82.5186 158.1185 0014430 285.1262  74.8364 14.96947715797375"},{"name":"COSMOS 2278","line1":"1 23087U 94023A   26182.03783532 -.00000216  00000+0 -88356-4 0  9992","line2":"2 23087  71.0549 297.9464 0010322 226.6754 133.3509 14.14397113660830"},{"name":"ERS-1","line1":"1 21574U 91050A   26182.06630170  .00000414  00000+0  14699-3 0  9996","line2":"2 21574  98.7794 203.1033 0031085 224.3277 135.5421 14.39526611832047"},{"name":"HST","line1":"1 20580U 90037B   26182.15963632  .00008219  00000+0  25961-3 0  9993","line2":"2 20580  28.4735 345.0705 0001499 316.6330  43.4148 15.30913500790710"},{"name":"INTERCOSMOS 25","line1":"1 21819U 91086A   26182.14335220  .00000698  00000+0  13808-3 0  9999","line2":"2 21819  82.6032 241.3647 1484011 232.2562 113.4783 12.12218504510438"},{"name":"OKEAN-3","line1":"1 21397U 91039A   26182.16404906  .00002240  00000+0  15415-3 0  9999","line2":"2 21397  82.5151 226.8283 0012458 306.3375  53.6701 15.05386683882100"},{"name":"SL-14 R/B","line1":"1 20511U 90018B   26181.91804707  .00000435  00000+0  51429-4 0  9997","line2":"2 20511  82.5221 117.2745 0017679  80.2909 280.0301 14.82225590939357"},{"name":"SL-14 R/B","line1":"1 21423U 91042B   26182.19756619  .00000394  00000+0  46757-4 0  9999","line2":"2 21423  82.4935 113.7578 0015828 224.4399 135.5546 14.81911144869886"},{"name":"SL-16 R/B","line1":"1 20625U 90046B   26182.08640451 -.00000241  00000+0 -99856-4 0  9990","line2":"2 20625  70.9994  59.7582 0012563 139.2668 220.9397 14.15024816864432"},{"name":"SL-16 R/B","line1":"1 22220U 92076B   26181.51607904 -.00000218  00000+0 -84885-4 0  9991","line2":"2 22220  71.0014 310.7028 0015062 281.0823 149.1127 14.16874884737814"},{"name":"SL-16 R/B","line1":"1 22285U 92093B   26182.09367211  .00000281  00000+0  16814-3 0  9993","line2":"2 22285  71.0213 126.1976 0003193 162.4327 197.6907 14.15463619729207"},{"name":"SL-16 R/B","line1":"1 22566U 93016B   26181.43908492 -.00000249  00000+0 -10330-3 0  9993","line2":"2 22566  71.0088 338.3730 0009344 164.1549 195.9868 14.15314729718126"},{"name":"SL-16 R/B","line1":"1 22803U 93059B   26182.11191844  .00000246  00000+0  14552-3 0  9990","line2":"2 22803  70.9898 131.9391 0015886  31.0121 329.1937 14.17248900695607"},{"name":"SL-16 R/B","line1":"1 23088U 94023B   26182.10411281 -.00000209  00000+0 -83057-4 0  9995","line2":"2 23088  70.9981 192.7046 0001846 172.4888 187.6263 14.15026744662138"},{"name":"SL-16 R/B","line1":"1 23343U 94074B   26182.08062472  .00000485  00000+0  71434-4 0  9996","line2":"2 23343  97.6986 208.2224 0005935 199.5885 228.1099 14.79514280704013"},{"name":"SL-16 R/B","line1":"1 23405U 94077B   26182.11214065 -.00000052  00000+0 -20835-5 0  9991","line2":"2 23405  70.9833 113.8675 0003761 315.0841  44.9977 14.15578108632287"},{"name":"SL-16 R/B","line1":"1 23705U 95058B   26182.05390841 -.00000206  00000+0 -80891-4 0  9992","line2":"2 23705  71.0229 302.2445 0014582 301.3500  58.6195 14.15511259583893"},{"name":"SL-6 R/B(2)","line1":"1 20666U 90055D   26182.07794147  .00001567  00000+0  12530-3 0  9999","line2":"2 20666  62.7806 228.1065 0042903   7.0320 353.1372 15.04045021955246"},{"name":"SL-8 R/B","line1":"1 20775U 90078B   26182.00420531  .00032728  00000+0  92590-3 0  9998","line2":"2 20775  82.9025 149.1545 0346828 351.7802   7.7817 14.93016764826181"},{"name":"SL-8 R/B","line1":"1 21088U 91006B   26182.16526352  .00000093  00000+0  77558-4 0  9991","line2":"2 21088  82.9422  85.6355 0023869  77.6974  35.8613 13.77507310779696"},{"name":"SL-8 R/B","line1":"1 21876U 92008B   26182.08771404  .00000138  00000+0  12583-3 0  9996","line2":"2 21876  82.9260 183.4519 0034785 175.4324 247.1473 13.75980590725017"},{"name":"SL-8 R/B","line1":"1 21938U 92020B   26182.10235270  .00000060  00000+0  46184-4 0  9997","line2":"2 21938  82.9299  69.5214 0028763 344.0010 124.7292 13.75550039716727"},{"name":"USA 81","line1":"1 21949U 92023A   26182.10637088  .00000186  00000+0  61391-4 0  9991","line2":"2 21949  85.0065  65.9736 0002524  72.7172 287.4296 14.32401843111029"}]}